start=new Date('2023-04-17T00:00:00.000Z').valueOf();
sats=[{"OBJECT_TYPE":"PAYLOAD","PERIAPSIS":"539.213","FILE":"3888799","CENTER_NAME":"EARTH","ELEMENT_SET_NO":"999","RCS_SIZE":"LARGE","INCLINATION":"53.2177","MEAN_MOTION_DDOT":"0.0000000000000","EPHEMERIS_TYPE":"0","ARG_OF_PERICENTER":"83.3180","TIME_SYSTEM":"UTC","OBJECT_ID":"2022-119AY","PERIOD":"95.438","ECCENTRICITY":"0.00007710","MEAN_ANOMALY":"276.7900","EPOCH":"2023-04-16T21:35:07.764288","SEMIMAJOR_AXIS":"6917.881","BSTAR":"0.00023488000000","GP_ID":"230200367","TLE_LINE2":"2 53932  53.2177   7.8198 0000771  83.3180 276.7900 15.08839737 32355","TLE_LINE1":"1 53932U 22119AY  23106.89939542  .00003452  00000-0  23488-3 0  9990","APOAPSIS":"540.280","SITE":"AFETR","MEAN_MOTION":"15.08839737","CLASSIFICATION_TYPE":"U","LAUNCH_DATE":"2022-09-24","MEAN_MOTION_DOT":"0.00003452","MEAN_ELEMENT_THEORY":"SGP4","NORAD_CAT_ID":"53932","REV_AT_EPOCH":"3235","REF_FRAME":"TEME","RA_OF_ASC_NODE":"7.8198","DECAY_DATE":null,"OBJECT_NAME":"STARLINK-4772","COUNTRY_CODE":"US"},{"MEAN_MOTION":"15.08837628","SITE":"AFETR","APOAPSIS":"540.511","MEAN_MOTION_DOT":"-0.00000115","LAUNCH_DATE":"2022-09-24","CLASSIFICATION_TYPE":"U","RA_OF_ASC_NODE":"12.6801","REF_FRAME":"TEME","REV_AT_EPOCH":"3227","NORAD_CAT_ID":"53933","MEAN_ELEMENT_THEORY":"SGP4","OBJECT_NAME":"STARLINK-4782","COUNTRY_CODE":"US","DECAY_DATE":null,"MEAN_MOTION_DDOT":"0.0000000000000","INCLINATION":"53.2186","ELEMENT_SET_NO":"999","RCS_SIZE":"LARGE","FILE":"3888799","CENTER_NAME":"EARTH","PERIAPSIS":"538.994","OBJECT_TYPE":"PAYLOAD","MEAN_ANOMALY":"268.3481","PERIOD":"95.438","ECCENTRICITY":"0.00010960","EPOCH":"2023-04-16T21:05:16.708704","OBJECT_ID":"2022-119AZ","TIME_SYSTEM":"UTC","ARG_OF_PERICENTER":"91.7636","EPHEMERIS_TYPE":"0","GP_ID":"230201622","BSTAR":"0.00001082600000","SEMIMAJOR_AXIS":"6917.888","TLE_LINE1":"1 53933U 22119AZ  23106.87866561 -.00000115  00000-0  10826-4 0  9996","TLE_LINE2":"2 53933  53.2186  12.6801 0001096  91.7636 268.3481 15.08837628 32270"},{"MEAN_MOTION_DOT":"0.00017524","LAUNCH_DATE":"2022-09-24","CLASSIFICATION_TYPE":"U","MEAN_MOTION":"15.08836503","SITE":"AFETR","APOAPSIS":"540.581","COUNTRY_CODE":"US","OBJECT_NAME":"STARLINK-4775","DECAY_DATE":null,"RA_OF_ASC_NODE":"7.7880","REF_FRAME":"TEME","REV_AT_EPOCH":"3236","NORAD_CAT_ID":"53934","MEAN_ELEMENT_THEORY":"SGP4","PERIOD":"95.438","ECCENTRICITY":"0.00011920","MEAN_ANOMALY":"250.1350","EPOCH":"2023-04-16T21:29:49.509024","OBJECT_ID":"2022-119BA","TIME_SYSTEM":"UTC","ARG_OF_PERICENTER":"109.9771","EPHEMERIS_TYPE":"0","INCLINATION":"53.2184","MEAN_MOTION_DDOT":"0.0000000000000","CENTER_NAME":"EARTH","FILE":"3888799","ELEMENT_SET_NO":"999","RCS_SIZE":"LARGE","OBJECT_TYPE":"PAYLOAD","PERIAPSIS":"538.931","TLE_LINE1":"1 53934U 22119BA  23106.89571191  .00017524  00000-0  11165-2 0  9997","TLE_LINE2":"2 53934  53.2184   7.7880 0001192 109.9771 250.1350 15.08836503 32365","GP_ID":"230200581","BSTAR":"0.00111650000000","SEMIMAJOR_AXIS":"6917.891"},{"LAUNCH_DATE":"2022-09-24","CLASSIFICATION_TYPE":"U","MEAN_MOTION_DOT":"0.00000683","SITE":"AFETR","APOAPSIS":"540.449","MEAN_MOTION":"15.08840130","DECAY_DATE":null,"OBJECT_NAME":"STARLINK-5000","COUNTRY_CODE":"US","REV_AT_EPOCH":"3248","NORAD_CAT_ID":"53935","MEAN_ELEMENT_THEORY":"SGP4","RA_OF_ASC_NODE":"357.6952","REF_FRAME":"TEME","ARG_OF_PERICENTER":"112.2668","TIME_SYSTEM":"UTC","EPHEMERIS_TYPE":"0","MEAN_ANOMALY":"247.8432","PERIOD":"95.438","EPOCH":"2023-04-16T21:04:37.170336","ECCENTRICITY":"0.00010170","OBJECT_ID":"2022-119BB","CENTER_NAME":"EARTH","FILE":"3888799","ELEMENT_SET_NO":"999","RCS_SIZE":"LARGE","PERIAPSIS":"539.041","OBJECT_TYPE":"PAYLOAD","INCLINATION":"53.2182","MEAN_MOTION_DDOT":"0.0000000000000","TLE_LINE1":"1 53935U 22119BB  23106.87820799  .00000683  00000-0  60972-4 0  9997","TLE_LINE2":"2 53935  53.2182 357.6952 0001017 112.2668 247.8432 15.08840130 32487","BSTAR":"0.00006097200000","SEMIMAJOR_AXIS":"6917.880","GP_ID":"230200621"},{"MEAN_MOTION":"15.10504608","SITE":"AFETR","APOAPSIS":"535.344","MEAN_MOTION_DOT":"-0.00029303","LAUNCH_DATE":"2022-09-24","CLASSIFICATION_TYPE":"U","RA_OF_ASC_NODE":"7.4031","REF_FRAME":"TEME","NORAD_CAT_ID":"53936","REV_AT_EPOCH":"130","MEAN_ELEMENT_THEORY":"SGP4","COUNTRY_CODE":"US","OBJECT_NAME":"STARLINK-4791","DECAY_DATE":null,"MEAN_MOTION_DDOT":"0.0000000000000","INCLINATION":"53.2181","CENTER_NAME":"EARTH","FILE":"3888799","ELEMENT_SET_NO":"999","RCS_SIZE":"LARGE","OBJECT_TYPE":"PAYLOAD","PERIAPSIS":"533.980","PERIOD":"95.332","EPOCH":"2023-04-16T22:00:00.999936","MEAN_ANOMALY":"186.4610","ECCENTRICITY":"0.00009860","OBJECT_ID":"2022-119BC","TIME_SYSTEM":"UTC","ARG_OF_PERICENTER":"78.6380","EPHEMERIS_TYPE":"0","GP_ID":"230200868","BSTAR":"-0.00174840000000","SEMIMAJOR_AXIS":"6912.797","TLE_LINE1":"1 53936U 22119BC  23106.91667824 -.00029303  00000-0 -17484-2 0  9991","TLE_LINE2":"2 53936  53.2181   7.4031 0000986  78.6380 186.4610 15.10504608  1308"},{"LAUNCH_DATE":"2022-09-24","CLASSIFICATION_TYPE":"U","MEAN_MOTION_DOT":"0.00010945","SITE":"AFETR","APOAPSIS":"535.540","MEAN_MOTION":"15.10485710","DECAY_DATE":null,"OBJECT_NAME":"STARLINK-4765","COUNTRY_CODE":"US","NORAD_CAT_ID":"53937","REV_AT_EPOCH":"3241","MEAN_ELEMENT_THEORY":"SGP4","RA_OF_ASC_NODE":"2.7487","REF_FRAME":"TEME","TIME_SYSTEM":"UTC","ARG_OF_PERICENTER":"76.0398","EPHEMERIS_TYPE":"0","PERIOD":"95.334","ECCENTRICITY":"0.00011860","MEAN_ANOMALY":"284.0727","EPOCH":"2023-04-16T21:15:01.368864","OBJECT_ID":"2022-119BD","RCS_SIZE":"LARGE","ELEMENT_SET_NO":"999","FILE":"3888799","CENTER_NAME":"EARTH","PERIAPSIS":"533.900","OBJECT_TYPE":"PAYLOAD","MEAN_MOTION_DDOT":"0.0000000000000","INCLINATION":"53.2187","TLE_LINE1":"1 53937U 22119BD  23106.88543251  .00010945  00000-0  67378-3 0  9993","TLE_LINE2":"2 53937  53.2187   2.7487 0001186  76.0398 284.0727 15.10485710 32414","BSTAR":"0.00067378000000","SEMIMAJOR_AXIS":"6912.855","GP_ID":"230201122"},{"INCLINATION":"53.2128","MEAN_MOTION_DDOT":"0.0000000000000","CENTER_NAME":"EARTH","FILE":"3888799","ELEMENT_SET_NO":"999","RCS_SIZE":"LARGE","OBJECT_TYPE":"PAYLOAD","PERIAPSIS":"538.973","MEAN_ANOMALY":"267.4497","PERIOD":"95.437","EPOCH":"2023-04-16T19:03:26.765856","ECCENTRICITY":"0.00011000","OBJECT_ID":"2022-125A","TIME_SYSTEM":"UTC","ARG_OF_PERICENTER":"92.6621","EPHEMERIS_TYPE":"0","GP_ID":"230200623","BSTAR":"0.00029986000000","SEMIMAJOR_AXIS":"6917.869","TLE_LINE1":"1 53964U 22125A   23106.79405979  .00004488  00000-0  29986-3 0  9992","TLE_LINE2":"2 53964  53.2128 293.3560 0001100  92.6621 267.4497 15.08843669 29613","MEAN_MOTION":"15.08843669","SITE":"AFWTR","APOAPSIS":"540.495","MEAN_MOTION_DOT":"0.00004488","LAUNCH_DATE":"2022-10-05","CLASSIFICATION_TYPE":"U","RA_OF_ASC_NODE":"293.3560","REF_FRAME":"TEME","NORAD_CAT_ID":"53964","REV_AT_EPOCH":"2961","MEAN_ELEMENT_THEORY":"SGP4","OBJECT_NAME":"STARLINK-4633","COUNTRY_CODE":"US","DECAY_DATE":null},{"OBJECT_NAME":"STARLINK-4578","COUNTRY_CODE":"US","DECAY_DATE":null,"RA_OF_ASC_NODE":"293.3375","REF_FRAME":"TEME","REV_AT_EPOCH":"2961","NORAD_CAT_ID":"53965","MEAN_ELEMENT_THEORY":"SGP4","MEAN_MOTION_DOT":"0.00024593","LAUNCH_DATE":"2022-10-05","CLASSIFICATION_TYPE":"U","MEAN_MOTION":"15.08852570","SITE":"AFWTR","APOAPSIS":"540.289","TLE_LINE1":"1 53965U 22125B   23106.79133382  .00024593  00000-0  15574-2 0  9995","TLE_LINE2":"2 53965  53.2148 293.3375 0000841  95.3464 264.7624 15.08852570 29619","GP_ID":"230200870","BSTAR":"0.00155740000000","SEMIMAJOR_AXIS":"6917.842","ECCENTRICITY":"0.00008410","PERIOD":"95.437","MEAN_ANOMALY":"264.7624","EPOCH":"2023-04-16T18:59:31.242048","OBJECT_ID":"2022-125B","ARG_OF_PERICENTER":"95.3464","TIME_SYSTEM":"UTC","EPHEMERIS_TYPE":"0","MEAN_MOTION_DDOT":"0.0000000000000","INCLINATION":"53.2148","RCS_SIZE":"LARGE","ELEMENT_SET_NO":"999","CENTER_NAME":"EARTH","FILE":"3888799","OBJECT_TYPE":"PAYLOAD","PERIAPSIS":"539.125"},{"GP_ID":"230201124","BSTAR":"0.00011280000000","SEMIMAJOR_AXIS":"6917.868","TLE_LINE1":"1 53966U 22125C   23106.78669022  .00001508  00000-0  11280-3 0  9992","TLE_LINE2":"2 53966  53.2150 293.3092 0001097  91.6747 268.4370 15.08844172 29614","INCLINATION":"53.2150","MEAN_MOTION_DDOT":"0.0000000000000","CENTER_NAME":"EARTH","FILE":"3888799","RCS_SIZE":"LARGE","ELEMENT_SET_NO":"999","OBJECT_TYPE":"PAYLOAD","PERIAPSIS":"538.974","ECCENTRICITY":"0.00010970","PERIOD":"95.437","MEAN_ANOMALY":"268.4370","EPOCH":"2023-04-16T18:52:50.035008","OBJECT_ID":"2022-125C","ARG_OF_PERICENTER":"91.6747","TIME_SYSTEM":"UTC","EPHEMERIS_TYPE":"0","RA_OF_ASC_NODE":"293.3092","REF_FRAME":"TEME","REV_AT_EPOCH":"2961","NORAD_CAT_ID":"53966","MEAN_ELEMENT_THEORY":"SGP4","COUNTRY_CODE":"US","OBJECT_NAME":"STARLINK-4635","DECAY_DATE":null,"MEAN_MOTION":"15.08844172","SITE":"AFWTR","APOAPSIS":"540.492","MEAN_MOTION_DOT":"0.00001508","LAUNCH_DATE":"2022-10-05","CLASSIFICATION_TYPE":"U"},{"REF_FRAME":"TEME","RA_OF_ASC_NODE":"293.2859","MEAN_ELEMENT_THEORY":"SGP4","NORAD_CAT_ID":"53967","REV_AT_EPOCH":"2961","OBJECT_NAME":"STARLINK-4634","COUNTRY_CODE":"US","DECAY_DATE":null,"MEAN_MOTION":"15.08845102","APOAPSIS":"540.543","SITE":"AFWTR","MEAN_MOTION_DOT":"0.00002629","CLASSIFICATION_TYPE":"U","LAUNCH_DATE":"2022-10-05","GP_ID":"230200083","SEMIMAJOR_AXIS":"6917.865","BSTAR":"0.00018320000000","TLE_LINE2":"2 53967  53.2146 293.2859 0001175  77.4999 282.6124 15.08845102 29617","TLE_LINE1":"1 53967U 22125D   23106.78300583  .00002629  00000-0  18320-3 0  9994","INCLINATION":"53.2146","MEAN_MOTION_DDOT":"0.0000000000000","PERIAPSIS":"538.917","OBJECT_TYPE":"PAYLOAD","CENTER_NAME":"EARTH","FILE":"3888799","RCS_SIZE":"LARGE","ELEMENT_SET_NO":"999","OBJECT_ID":"2022-125D","PERIOD":"95.437","ECCENTRICITY":"0.00011750","MEAN_ANOMALY":"282.6124","EPOCH":"2023-04-16T18:47:31.703712","EPHEMERIS_TYPE":"0","ARG_OF_PERICENTER":"77.4999","TIME_SYSTEM":"UTC"}];
